NORBI                   
1 46494U 20068J   26199.55010741  .00013606  00000+0  24667-3 0  9996
2 46494  97.8614 218.3100 0008534 133.6290 226.5669 15.49717104321060
SALSAT                  
1 46495U 20068K   26199.01462697  .00004061  00000+0  14177-3 0  9999
2 46495  97.8861 203.9671 0009495 182.8082 177.3106 15.30195257320078
ICEYE-X6                
1 46497U 20068M   26199.58110904  .00001153  00000+0  86784-4 0  9997
2 46497  98.0993 194.7588 0006927   0.7431 359.3803 15.04676757317955
NETSAT-4                
1 46504U 20068U   26199.48458632  .00009250  00000+0  19940-3 0  9993
2 46504  97.8607 210.2643 0005145 181.7593 178.3637 15.44824572320603
NETSAT-3                
1 46505U 20068V   26199.44959557  .00009822  00000+0  21995-3 0  9990
2 46505  97.8659 208.4051 0004235 197.1084 163.0021 15.43676171320504
NETSAT-1                
1 46506U 20068W   26199.49119016  .00006429  00000+0  19023-3 0  9993
2 46506  97.8760 202.4040 0002632 243.0014 117.0959 15.35290298320101
NETSAT-2                
1 46507U 20068X   26199.60767840  .00012787  00000+0  25294-3 0  9992
2 46507  97.8619 210.4139 0002650 194.3581 165.7592 15.47257126320592
TIANQI-6                
1 46810U 20076D   26199.40192540  .00001442  00000+0  95315-4 0  9993
2 46810  34.9975 216.8613 0009517  85.1745 275.0051 15.07362119313290
KSM1-C                  
1 46906U 20081B   26199.41494590  .00004029  00000+0  15119-3 0  9993
2 46906  36.8936 226.0829 0001533 151.1009 208.9825 15.27202479313943
KSM1-D                  
1 46907U 20081C   26199.45876203  .00003347  00000+0  13437-3 0  9996
2 46907  36.8949 235.4338 0003348 175.8894 184.1883 15.25121767313877
KSM1-A                  
1 46912U 20081H   26199.49985086  .00003812  00000+0  14676-3 0  9999
2 46912  36.8943 228.1925 0003815 225.5721 134.4717 15.26397830313960
R2                      
1 46913U 20081J   26199.33612310  .00003526  00000+0  13823-3 0  9995
2 46913  36.8964 229.3474 0008415 194.1547 165.8968 15.25843232316740
KSM1-B                  
1 46914U 20081K   26199.46662177  .00003398  00000+0  13724-3 0  9993
2 46914  36.9000 236.0669 0005395 191.8340 168.2283 15.24905557316962
GONETS-M 20             
1 47227U 20091A   26199.56076374  .00000105  00000+0  68261-3 0  9990
2 47227  82.5049 282.9356 0022183 112.0339 248.3100 12.42894768254978
GONETS-M 21             
1 47228U 20091B   26199.61528403  .00000003  00000+0 -49178-4 0  9997
2 47228  82.4972 281.5895 0015944 124.9597 235.2983 12.42887376254972
GONETS-M 22             
1 47229U 20091C   26199.58824049  .00000095  00000+0  61102-3 0  9999
2 47229  82.5029 282.5196 0023050 107.4548 252.9054 12.42893893254922
CUBEL                   
1 47448U 21006AM  26199.57601696  .00010552  00000+0  24859-3 0  9996
2 47448  97.2307 249.8803 0007741  73.0228 287.1867 15.42081249304598
ARKTIKA-M 1             
1 47719U 21016A   26195.40739072 -.00000301  00000+0  00000+0 0  9996
2 47719  63.2662  53.6722 7297332 270.0591  14.4994  2.00611590 39330
STARLINK-2342           
1 47883U 21021Z   26199.58335648  .00227321  31135-4  58633-3 0  9997
2 47883  53.1508 349.2101 0010158 305.5651 351.6211 15.94674551  5915
GRUS-1B                 
1 47934U 21022C   26199.62215442  .00001136  00000+0  98837-4 0  9996
2 47934  97.5334  81.7700 0014509 204.3537 155.7002 14.98783587290603
UNISAT-7                
1 47945U 21022P   26199.20079829  .00007744  00000+0  18820-3 0  9993
2 47945  97.3849 104.4616 0007396 336.2138  23.8766 15.41247238294637
GLOBAL-9                
1 47971U 21023G   26199.63193544  .00011664  00000+0  22710-3 0  9990
2 47971  44.9812  73.6311 0003894 192.1264 167.9533 15.47698951299816
AII-BRAVO               
1 48270U 21034C   26199.09988139  .00002712  00000+0  20221-3 0  9996
2 48270  97.5600 253.3062 0006505 151.9137 208.2441 15.03685455284269
TYVAK-182A              
1 48271U 21034D   26199.61848292  .00001760  00000+0  12359-3 0  9995
2 48271  97.5706 257.9929 0005089 205.1077 154.9904 15.06420395284567
CSS (TIANHE)            
1 48274U 21035A   26198.52240887  .00001129  00000+0  18813-4 0  9995
2 48274  41.4691 137.7269 0001921 301.5742  58.4908 15.58143309297902
TYVAK-0130              
1 48606U 21041BF  26199.51100710  .00003331  00000+0  13308-3 0  9991
2 48606  52.9945 240.5693 0008412 271.8703  88.1331 15.27965584285171
HAIYANG-2D              
1 48621U 21043A   26199.66844843 -.00000260  00000+0 -16211-3 0  9994
2 48621  65.9961 226.3226 0011598 265.3642  94.6102 13.83373463260904
2021-050D               
1 48843U 21050D   26199.66557929  .00004948  00000+0  20939-3 0  9991
2 48843  97.3327 274.9886 0006682 142.0156 218.1554 15.23619034283750
