OBJECT_NAME,OBJECT_ID,EPOCH,MEAN_MOTION,ECCENTRICITY,INCLINATION,RA_OF_ASC_NODE,ARG_OF_PERICENTER,MEAN_ANOMALY,EPHEMERIS_TYPE,CLASSIFICATION_TYPE,NORAD_CAT_ID,ELEMENT_SET_NO,REV_AT_EPOCH,BSTAR,MEAN_MOTION_DOT,MEAN_MOTION_DDOT
NORBI,2020-068J,2026-07-18T13:12:09.280224,15.49717104,.00085342,97.8614,218.3100,133.6290,226.5669,0,U,46494,999,32106,.246669E-3,.13606E-3,0
SALSAT,2020-068K,2026-07-18T00:21:03.770208,15.30195257,.00094957,97.8861,203.9671,182.8082,177.3106,0,U,46495,999,32007,.14176866E-3,.4061E-4,0
ICEYE-X6,2020-068M,2026-07-18T13:56:47.821056,15.04676757,.00069278,98.0993,194.7588,0.7431,359.3803,0,U,46497,999,31795,.86783749E-4,.1153E-4,0
NETSAT-4,2020-068U,2026-07-18T11:37:48.258048,15.44824572,.00051455,97.8607,210.2643,181.7593,178.3637,0,U,46504,999,32060,.19939976E-3,.925E-4,0
NETSAT-3,2020-068V,2026-07-18T10:47:25.057248,15.43676171,.00042357,97.8659,208.4051,197.1084,163.0021,0,U,46505,999,32050,.21994705E-3,.9822E-4,0
NETSAT-1,2020-068W,2026-07-18T11:47:18.829824,15.35290298,.00026324,97.8760,202.4040,243.0014,117.0959,0,U,46506,999,32010,.19023457E-3,.6429E-4,0
NETSAT-2,2020-068X,2026-07-18T14:35:03.413760,15.47257126,.00026501,97.8619,210.4139,194.3581,165.7592,0,U,46507,999,32059,.2529379E-3,.12787E-3,0
TIANQI-6,2020-076D,2026-07-18T09:38:46.354560,15.07362119,.00095179,34.9975,216.8613,85.1745,275.0051,0,U,46810,999,31329,.9531538E-4,.1442E-4,0
KSM1-C,2020-081B,2026-07-18T09:57:31.325760,15.27202479,.00015338,36.8936,226.0829,151.1009,208.9825,0,U,46906,999,31394,.15119179E-3,.4029E-4,0
KSM1-D,2020-081C,2026-07-18T11:00:37.039392,15.25121767,.00033481,36.8949,235.4338,175.8894,184.1883,0,U,46907,999,31387,.13436765E-3,.3347E-4,0
KSM1-A,2020-081H,2026-07-18T11:59:47.114304,15.26397830,.0003815,36.8943,228.1925,225.5721,134.4717,0,U,46912,999,31396,.14675552E-3,.3812E-4,0
R2,2020-081J,2026-07-18T08:04:01.035840,15.25843232,.00084157,36.8964,229.3474,194.1547,165.8968,0,U,46913,999,31674,.13823349E-3,.3526E-4,0
KSM1-B,2020-081K,2026-07-18T11:11:56.120928,15.24905557,.00053958,36.9000,236.0669,191.8340,168.2283,0,U,46914,999,31696,.13724184E-3,.3398E-4,0
GONETS-M 20,2020-091A,2026-07-18T13:27:29.987136,12.42894768,.00221838,82.5049,282.9356,112.0339,248.3100,0,U,47227,999,25497,.68260922E-3,.105E-5,0
GONETS-M 21,2020-091B,2026-07-18T14:46:00.540192,12.42887376,.00159448,82.4972,281.5895,124.9597,235.2983,0,U,47228,999,25497,-.49178459E-4,.3E-7,0
GONETS-M 22,2020-091C,2026-07-18T14:07:03.978336,12.42893893,.00230503,82.5029,282.5196,107.4548,252.9054,0,U,47229,999,25492,.61101747E-3,.95E-6,0
CUBEL,2021-006AM,2026-07-18T13:49:27.865344,15.42081249,.00077412,97.2307,249.8803,73.0228,287.1867,0,U,47448,999,30459,.24858545E-3,.10552E-3,0
ARKTIKA-M 1,2021-016A,2026-07-14T09:46:38.558208,2.00611590,.7297332,63.2662,53.6722,270.0591,14.4994,0,U,47719,999,3933,0,-.301E-5,0
STARLINK-2342,2021-021Z,2026-07-18T14:00:01.999872,15.94674551,.00101587,53.1508,349.2101,305.5651,351.6211,0,U,47883,999,591,.58633492E-3,.227321E-2,.31135212E-4
GRUS-1B,2021-022C,2026-07-18T14:55:54.141888,14.98783587,.00145098,97.5334,81.7700,204.3537,155.7002,0,U,47934,999,29060,.98836588E-4,.1136E-4,0
UNISAT-7,2021-022P,2026-07-18T04:49:08.972256,15.41247238,.00073963,97.3849,104.4616,336.2138,23.8766,0,U,47945,999,29463,.18820309E-3,.7744E-4,0
GLOBAL-9,2021-023G,2026-07-18T15:09:59.222016,15.47698951,.00038948,44.9812,73.6311,192.1264,167.9533,0,U,47971,999,29981,.22710391E-3,.11664E-3,0
AII-BRAVO,2021-034C,2026-07-18T02:23:49.752096,15.03685455,.00065054,97.5600,253.3062,151.9137,208.2441,0,U,48270,999,28426,.20221278E-3,.2712E-4,0
TYVAK-182A,2021-034D,2026-07-18T14:50:36.924288,15.06420395,.00050894,97.5706,257.9929,205.1077,154.9904,0,U,48271,999,28456,.12358729E-3,.176E-4,0
CSS (TIANHE),2021-035A,2026-07-17T12:32:16.126368,15.58143309,.0001921,41.4691,137.7269,301.5742,58.4908,0,U,48274,999,29790,.18813E-4,.1129E-4,0
TYVAK-0130,2021-041BF,2026-07-18T12:15:51.013440,15.27965584,.00084122,52.9945,240.5693,271.8703,88.1331,0,U,48606,999,28517,.13308272E-3,.3331E-4,0
HAIYANG-2D,2021-043A,2026-07-18T16:02:33.944352,13.83373463,.00115983,65.9961,226.3226,265.3642,94.6102,0,U,48621,999,26090,-.16210913E-3,-.26E-5,0
2021-050D,2021-050D,2026-07-18T15:58:26.050656,15.23619034,.00066829,97.3327,274.9886,142.0156,218.1554,0,U,48843,999,28375,.20939411E-3,.4948E-4,0
